[{"OBJECT_NAME":"QIANFAN-7","OBJECT_ID":"2024-140G","EPOCH":"2026-03-09T22:22:28.116768","MEAN_MOTION":14.27774901,"ECCENTRICITY":0.00169421,"INCLINATION":88.9727,"RA_OF_ASC_NODE":283.4803,"ARG_OF_PERICENTER":110.6267,"MEAN_ANOMALY":249.6747,"EPHEMERIS_TYPE":0,"CLASSIFICATION_TYPE":"U","NORAD_CAT_ID":60385,"ELEMENT_SET_NO":999,"REV_AT_EPOCH":8283,"BSTAR":0.00011108135,"MEAN_MOTION_DOT":2.89e-6,"MEAN_MOTION_DDOT":0},{"OBJECT_NAME":"COSMOS 1275 DEB","OBJECT_ID":"1981-053RK","EPOCH":"2026-03-07T11:06:02.848608","MEAN_MOTION":14.23469257,"ECCENTRICITY":0.00225164,"INCLINATION":83.0668,"RA_OF_ASC_NODE":334.3044,"ARG_OF_PERICENTER":21.1009,"MEAN_ANOMALY":339.1098,"EPHEMERIS_TYPE":0,"CLASSIFICATION_TYPE":"U","NORAD_CAT_ID":42147,"ELEMENT_SET_NO":999,"REV_AT_EPOCH":63454,"BSTAR":0.0013942484,"MEAN_MOTION_DOT":3.192e-5,"MEAN_MOTION_DDOT":0}]
